{
    "links": {
        "self": "http://www.neowsapp.com/rest/v1/neo/3720899?api_key=iIulBulltgU6a56xZRHN4H3l9WmuAYTsLGpBGhQ2"
    },
    "id": "3720899",
    "neo_reference_id": "3720899",
    "name": "(2015 KE158)",
    "designation": "2015 KE158",
    "nasa_jpl_url": "http://ssd.jpl.nasa.gov/sbdb.cgi?sstr=3720899",
    "absolute_magnitude_h": 26.5,
    "estimated_diameter": {
        "kilometers": {
            "estimated_diameter_min": 0.0133215567,
            "estimated_diameter_max": 0.0297879063
        },
        "meters": {
            "estimated_diameter_min": 13.3215566698,
            "estimated_diameter_max": 29.7879062798
        },
        "miles": {
            "estimated_diameter_min": 0.008277629,
            "estimated_diameter_max": 0.0185093411
        },
        "feet": {
            "estimated_diameter_min": 43.7058959846,
            "estimated_diameter_max": 97.7293544391
        }
    },
    "is_potentially_hazardous_asteroid": false,
    "close_approach_data": [
        {
            "close_approach_date": "2015-05-17",
            "close_approach_date_full": "2015-May-17 13:31",
            "epoch_date_close_approach": 1431869460000,
            "relative_velocity": {
                "kilometers_per_second": "5.2062584894",
                "kilometers_per_hour": "18742.530561758",
                "miles_per_hour": "11645.8796148879"
            },
            "miss_distance": {
                "astronomical": "0.1218070748",
                "lunar": "47.3829520972",
                "kilometers": "18222078.941010676",
                "miles": "11322674.8145362888"
            },
            "orbiting_body": "Earth"
        }
    ],
    "orbital_data": {
        "orbit_id": "4",
        "orbit_determination_date": "2019-07-19 05:25:57",
        "first_observation_date": "2015-05-22",
        "last_observation_date": "2015-05-24",
        "data_arc_in_days": 2,
        "observations_used": 15,
        "orbit_uncertainty": "8",
        "minimum_orbit_intersection": ".121607",
        "jupiter_tisserand_invariant": "3.327",
        "epoch_osculation": "2457166.5",
        "eccentricity": ".5266637807310643",
        "semi_major_axis": "2.392608362778339",
        "inclination": "1.7061093956104",
        "ascending_node_longitude": "60.59915608248538",
        "orbital_period": "1351.779485778615",
        "perihelion_distance": "1.132508196628737",
        "perihelion_argument": "172.7999228649288",
        "aphelion_distance": "3.652708528927941",
        "perihelion_time": "2457157.779044825106",
        "mean_anomaly": "2.322526636919251",
        "mean_motion": ".2663156260228663",
        "equinox": "J2000",
        "orbit_class": {
            "orbit_class_type": "AMO",
            "orbit_class_description": "Near-Earth asteroid orbits similar to that of 1221 Amor",
            "orbit_class_range": "1.017 AU < q (perihelion) < 1.3 AU"
        }
    },
    "is_sentry_object": false
}